CCSDS_OMM_VERS = 2.0
CREATION_DATE  = 
ORIGINATOR     = 

OBJECT_NAME    = PROGRESS-MS 32
OBJECT_ID      = 2025-204A
CENTER_NAME    = EARTH
REF_FRAME      = TEME
TIME_SYSTEM    = UTC
MEAN_ELEMENT_THEORY = SGP/SGP4

EPOCH          = 2025-11-20T20:48:58.837824
MEAN_MOTION    = 15.48935269
ECCENTRICITY   = .00039608
INCLINATION    = 51.6324
RA_OF_ASC_NODE = 250.7347
ARG_OF_PERICENTER = 150.1460
MEAN_ANOMALY   = 209.9755

EPHEMERIS_TYPE = 0
CLASSIFICATION_TYPE = U
NORAD_CAT_ID   = 65586
ELEMENT_SET_NO = 999
REV_AT_EPOCH   = 27
BSTAR          = .26736525E-3
MEAN_MOTION_DOT = .14275E-3
MEAN_MOTION_DDOT = 0

CCSDS_OMM_VERS = 2.0
CREATION_DATE  = 
ORIGINATOR     = 

OBJECT_NAME    = CYGNUS NG-23
OBJECT_ID      = 2025-208A
CENTER_NAME    = EARTH
REF_FRAME      = TEME
TIME_SYSTEM    = UTC
MEAN_ELEMENT_THEORY = SGP/SGP4

EPOCH          = 2025-11-20T20:48:58.837824
MEAN_MOTION    = 15.48935269
ECCENTRICITY   = .00039608
INCLINATION    = 51.6324
RA_OF_ASC_NODE = 250.7347
ARG_OF_PERICENTER = 150.1460
MEAN_ANOMALY   = 209.9755

EPHEMERIS_TYPE = 0
CLASSIFICATION_TYPE = U
NORAD_CAT_ID   = 65616
ELEMENT_SET_NO = 999
REV_AT_EPOCH   = 22
BSTAR          = .26736525E-3
MEAN_MOTION_DOT = .14275E-3
MEAN_MOTION_DDOT = 0

CCSDS_OMM_VERS = 2.0
CREATION_DATE  = 
ORIGINATOR     = 

OBJECT_NAME    = DRAGONFLY
OBJECT_ID      = 1998-067XH
CENTER_NAME    = EARTH
REF_FRAME      = TEME
TIME_SYSTEM    = UTC
MEAN_ELEMENT_THEORY = SGP/SGP4

EPOCH          = 2025-11-21T20:04:10.062048
MEAN_MOTION    = 15.65088816
ECCENTRICITY   = .0005847
INCLINATION    = 51.6283
RA_OF_ASC_NODE = 242.2064
ARG_OF_PERICENTER = 162.7113
MEAN_ANOMALY   = 197.4082

EPHEMERIS_TYPE = 0
CLASSIFICATION_TYPE = U
NORAD_CAT_ID   = 65729
ELEMENT_SET_NO = 999
REV_AT_EPOCH   = 988
BSTAR          = .11353E-2
MEAN_MOTION_DOT = .115293E-2
MEAN_MOTION_DDOT = 0

CCSDS_OMM_VERS = 2.0
CREATION_DATE  = 
ORIGINATOR     = 

OBJECT_NAME    = 1998-067XJ
OBJECT_ID      = 1998-067XJ
CENTER_NAME    = EARTH
REF_FRAME      = TEME
TIME_SYSTEM    = UTC
MEAN_ELEMENT_THEORY = SGP/SGP4

EPOCH          = 2025-11-21T04:36:38.972736
MEAN_MOTION    = 15.85726925
ECCENTRICITY   = .0012313
INCLINATION    = 51.6219
RA_OF_ASC_NODE = 242.3710
ARG_OF_PERICENTER = 159.3118
MEAN_ANOMALY   = 200.8386

EPHEMERIS_TYPE = 0
CLASSIFICATION_TYPE = U
NORAD_CAT_ID   = 65730
ELEMENT_SET_NO = 999
REV_AT_EPOCH   = 982
BSTAR          = .29613E-2
MEAN_MOTION_DOT = .809989E-2
MEAN_MOTION_DDOT = 0

CCSDS_OMM_VERS = 2.0
CREATION_DATE  = 
ORIGINATOR     = 

OBJECT_NAME    = 1998-067XK
OBJECT_ID      = 1998-067XK
CENTER_NAME    = EARTH
REF_FRAME      = TEME
TIME_SYSTEM    = UTC
MEAN_ELEMENT_THEORY = SGP/SGP4

EPOCH          = 2025-11-20T04:02:22.455744
MEAN_MOTION    = 15.61157875
ECCENTRICITY   = .00060174
INCLINATION    = 51.6311
RA_OF_ASC_NODE = 251.3233
ARG_OF_PERICENTER = 130.1607
MEAN_ANOMALY   = 229.9914

EPHEMERIS_TYPE = 0
CLASSIFICATION_TYPE = U
NORAD_CAT_ID   = 65731
ELEMENT_SET_NO = 999
REV_AT_EPOCH   = 961
BSTAR          = .83778577E-3
MEAN_MOTION_DOT = .72372E-3
MEAN_MOTION_DDOT = 0

CCSDS_OMM_VERS = 2.0
CREATION_DATE  = 
ORIGINATOR     = 

OBJECT_NAME    = RSP-03
OBJECT_ID      = 1998-067XL
CENTER_NAME    = EARTH
REF_FRAME      = TEME
TIME_SYSTEM    = UTC
MEAN_ELEMENT_THEORY = SGP/SGP4

EPOCH          = 2025-11-21T19:16:48.400608
MEAN_MOTION    = 15.63175705
ECCENTRICITY   = .0006794
INCLINATION    = 51.6289
RA_OF_ASC_NODE = 242.7392
ARG_OF_PERICENTER = 139.5341
MEAN_ANOMALY   = 220.6160

EPHEMERIS_TYPE = 0
CLASSIFICATION_TYPE = U
NORAD_CAT_ID   = 65732
ELEMENT_SET_NO = 999
REV_AT_EPOCH   = 988
BSTAR          = .10272E-2
MEAN_MOTION_DOT = .96448E-3
MEAN_MOTION_DDOT = 0

CCSDS_OMM_VERS = 2.0
CREATION_DATE  = 
ORIGINATOR     = 

OBJECT_NAME    = GHS-01
OBJECT_ID      = 1998-067XM
CENTER_NAME    = EARTH
REF_FRAME      = TEME
TIME_SYSTEM    = UTC
MEAN_ELEMENT_THEORY = SGP/SGP4

EPOCH          = 2025-11-21T08:50:16.850112
MEAN_MOTION    = 15.66355114
ECCENTRICITY   = .0006407
INCLINATION    = 51.6303
RA_OF_ASC_NODE = 244.3346
ARG_OF_PERICENTER = 158.2528
MEAN_ANOMALY   = 201.8741

EPHEMERIS_TYPE = 0
CLASSIFICATION_TYPE = U
NORAD_CAT_ID   = 65733
ELEMENT_SET_NO = 999
REV_AT_EPOCH   = 982
BSTAR          = .13808E-2
MEAN_MOTION_DOT = .148282E-2
MEAN_MOTION_DDOT = 0

CCSDS_OMM_VERS = 2.0
CREATION_DATE  = 
ORIGINATOR     = 

OBJECT_NAME    = YOTSUBA-KULOVER
OBJECT_ID      = 1998-067XN
CENTER_NAME    = EARTH
REF_FRAME      = TEME
TIME_SYSTEM    = UTC
MEAN_ELEMENT_THEORY = SGP/SGP4

EPOCH          = 2025-11-20T12:20:58.171488
MEAN_MOTION    = 15.56073445
ECCENTRICITY   = .00025128
INCLINATION    = 51.6311
RA_OF_ASC_NODE = 251.3817
ARG_OF_PERICENTER = 101.0931
MEAN_ANOMALY   = 259.0343

EPHEMERIS_TYPE = 0
CLASSIFICATION_TYPE = U
NORAD_CAT_ID   = 65941
ELEMENT_SET_NO = 999
REV_AT_EPOCH   = 639
BSTAR          = .81531473E-3
MEAN_MOTION_DOT = .57907E-3
MEAN_MOTION_DDOT = 0

CCSDS_OMM_VERS = 2.0
CREATION_DATE  = 
ORIGINATOR     = 

OBJECT_NAME    = BOTAN
OBJECT_ID      = 1998-067XP
CENTER_NAME    = EARTH
REF_FRAME      = TEME
TIME_SYSTEM    = UTC
MEAN_ELEMENT_THEORY = SGP/SGP4

EPOCH          = 2025-11-20T19:30:59.816448
MEAN_MOTION    = 15.57989430
ECCENTRICITY   = .00046576
INCLINATION    = 51.6307
RA_OF_ASC_NODE = 249.6268
ARG_OF_PERICENTER = 109.5809
MEAN_ANOMALY   = 250.5686

EPHEMERIS_TYPE = 0
CLASSIFICATION_TYPE = U
NORAD_CAT_ID   = 65942
ELEMENT_SET_NO = 999
REV_AT_EPOCH   = 644
BSTAR          = .10586324E-2
MEAN_MOTION_DOT = .81204E-3
MEAN_MOTION_DDOT = 0

CCSDS_OMM_VERS = 2.0
CREATION_DATE  = 
ORIGINATOR     = 

OBJECT_NAME    = E-KAGAKU-1
OBJECT_ID      = 1998-067XQ
CENTER_NAME    = EARTH
REF_FRAME      = TEME
TIME_SYSTEM    = UTC
MEAN_ELEMENT_THEORY = SGP/SGP4

EPOCH          = 2025-11-20T18:30:22.293504
MEAN_MOTION    = 15.56084359
ECCENTRICITY   = .00040785
INCLINATION    = 51.6314
RA_OF_ASC_NODE = 250.0966
ARG_OF_PERICENTER = 90.9518
MEAN_ANOMALY   = 269.1941

EPHEMERIS_TYPE = 0
CLASSIFICATION_TYPE = U
NORAD_CAT_ID   = 65943
ELEMENT_SET_NO = 999
REV_AT_EPOCH   = 643
BSTAR          = .80516874E-3
MEAN_MOTION_DOT = .57209E-3
MEAN_MOTION_DDOT = 0

CCSDS_OMM_VERS = 2.0
CREATION_DATE  = 
ORIGINATOR     = 

OBJECT_NAME    = HRC MONOBLOCK CAMERA
OBJECT_ID      = 1998-067XR
CENTER_NAME    = EARTH
REF_FRAME      = TEME
TIME_SYSTEM    = UTC
MEAN_ELEMENT_THEORY = SGP/SGP4

EPOCH          = 2025-11-21T08:29:33.777024
MEAN_MOTION    = 15.52301489
ECCENTRICITY   = .0004761
INCLINATION    = 51.6313
RA_OF_ASC_NODE = 247.9822
ARG_OF_PERICENTER = 98.4864
MEAN_ANOMALY   = 261.6666

EPHEMERIS_TYPE = 0
CLASSIFICATION_TYPE = U
NORAD_CAT_ID   = 66052
ELEMENT_SET_NO = 999
REV_AT_EPOCH   = 551
BSTAR          = .63272E-3
MEAN_MOTION_DOT = .38936E-3
MEAN_MOTION_DDOT = 0

CCSDS_OMM_VERS = 2.0
CREATION_DATE  = 
ORIGINATOR     = 

OBJECT_NAME    = HTV-X1
OBJECT_ID      = 2025-241A
CENTER_NAME    = EARTH
REF_FRAME      = TEME
TIME_SYSTEM    = UTC
MEAN_ELEMENT_THEORY = SGP/SGP4

EPOCH          = 2025-11-20T20:48:58.837824
MEAN_MOTION    = 15.48935269
ECCENTRICITY   = .00039608
INCLINATION    = 51.6324
RA_OF_ASC_NODE = 250.7347
ARG_OF_PERICENTER = 150.1460
MEAN_ANOMALY   = 209.9755

EPHEMERIS_TYPE = 0
CLASSIFICATION_TYPE = U
NORAD_CAT_ID   = 66174
ELEMENT_SET_NO = 999
REV_AT_EPOCH   = 145
BSTAR          = .26736525E-3
MEAN_MOTION_DOT = .14275E-3
MEAN_MOTION_DDOT = 0

