PROGRESS-MS 32          
1 65586U 25204A   25324.86734766  .00014275  00000+0  26737-3 0  9992
2 65586  51.6324 250.7347 0003960 150.1460 209.9755 15.48935269   274
CYGNUS NG-23            
1 65616U 25208A   25324.86734766  .00014275  00000+0  26737-3 0  9990
2 65616  51.6324 250.7347 0003960 150.1460 209.9755 15.48935269   223
DRAGONFLY               
1 65729U 98067XH  25325.83622757  .00115293  00000+0  11353-2 0  9991
2 65729  51.6283 242.2064 0005847 162.7113 197.4082 15.65088816  9885
1998-067XJ              
1 65730U 98067XJ  25325.19211774  .00809989  00000+0  29613-2 0  9995
2 65730  51.6219 242.3710 0012313 159.3118 200.8386 15.85726925  9820
1998-067XK              
1 65731U 98067XK  25324.16831546  .00072372  00000+0  83779-3 0  9999
2 65731  51.6311 251.3233 0006017 130.1607 229.9914 15.61157875  9610
RSP-03                  
1 65732U 98067XL  25325.80333797  .00096448  00000+0  10272-2 0  9994
2 65732  51.6289 242.7392 0006794 139.5341 220.6160 15.63175705  9889
GHS-01                  
1 65733U 98067XM  25325.36825058  .00148282  00000+0  13808-2 0  9994
2 65733  51.6303 244.3346 0006407 158.2528 201.8741 15.66355114  9827
YOTSUBA-KULOVER         
1 65941U 98067XN  25324.51456217  .00057907  00000+0  81531-3 0  9990
2 65941  51.6311 251.3817 0002512 101.0931 259.0343 15.56073445  6390
BOTAN                   
1 65942U 98067XP  25324.81319232  .00081204  00000+0  10586-2 0  9997
2 65942  51.6307 249.6268 0004657 109.5809 250.5686 15.57989430  6448
E-KAGAKU-1              
1 65943U 98067XQ  25324.77109136  .00057209  00000+0  80517-3 0  9993
2 65943  51.6314 250.0966 0004078  90.9518 269.1941 15.56084359  6439
HRC MONOBLOCK CAMERA    
1 66052U 98067XR  25325.35386316  .00038936  00000+0  63272-3 0  9992
2 66052  51.6313 247.9822 0004761  98.4864 261.6666 15.52301489  5513
HTV-X1                  
1 66174U 25241A   25324.86734766  .00014275  00000+0  26737-3 0  9997
2 66174  51.6324 250.7347 0003960 150.1460 209.9755 15.48935269  1459
